[{"OBJECT_NAME":"ONEWEB-0225","OBJECT_ID":"2021-045AJ","EPOCH":"2025-10-08T07:24:42.354720","MEAN_MOTION":13.15547066,"ECCENTRICITY":0.00016656,"INCLINATION":87.899,"RA_OF_ASC_NODE":309.473,"ARG_OF_PERICENTER":114.9395,"MEAN_ANOMALY":245.1909,"EPHEMERIS_TYPE":0,"CLASSIFICATION_TYPE":"U","NORAD_CAT_ID":48799,"ELEMENT_SET_NO":999,"REV_AT_EPOCH":21130,"BSTAR":0.00045500508,"MEAN_MOTION_DOT":1.84e-6,"MEAN_MOTION_DDOT":0},{"OBJECT_NAME":"ONEWEB-0215","OBJECT_ID":"2021-045AK","EPOCH":"2025-10-08T03:02:19.099680","MEAN_MOTION":13.15549068,"ECCENTRICITY":0.00018396,"INCLINATION":87.899,"RA_OF_ASC_NODE":309.4632,"ARG_OF_PERICENTER":118.0962,"MEAN_ANOMALY":242.0355,"EPHEMERIS_TYPE":0,"CLASSIFICATION_TYPE":"U","NORAD_CAT_ID":48800,"ELEMENT_SET_NO":999,"REV_AT_EPOCH":21115,"BSTAR":-3.2822402e-5,"MEAN_MOTION_DOT":0,"MEAN_MOTION_DDOT":0},{"OBJECT_NAME":"ONEWEB-0216","OBJECT_ID":"2021-045AL","EPOCH":"2025-10-08T03:16:00.542496","MEAN_MOTION":13.15549221,"ECCENTRICITY":0.00016055,"INCLINATION":87.8978,"RA_OF_ASC_NODE":309.4995,"ARG_OF_PERICENTER":94.2125,"MEAN_ANOMALY":265.9189,"EPHEMERIS_TYPE":0,"CLASSIFICATION_TYPE":"U","NORAD_CAT_ID":48801,"ELEMENT_SET_NO":999,"REV_AT_EPOCH":21116,"BSTAR":8.5709985e-5,"MEAN_MOTION_DOT":4.5e-7,"MEAN_MOTION_DDOT":0},{"OBJECT_NAME":"ONEWEB-0239","OBJECT_ID":"2021-045AM","EPOCH":"2025-10-08T03:22:50.435328","MEAN_MOTION":13.15546507,"ECCENTRICITY":0.00021106,"INCLINATION":87.898,"RA_OF_ASC_NODE":309.5132,"ARG_OF_PERICENTER":117.7146,"MEAN_ANOMALY":242.4198,"EPHEMERIS_TYPE":0,"CLASSIFICATION_TYPE":"U","NORAD_CAT_ID":48802,"ELEMENT_SET_NO":999,"REV_AT_EPOCH":21120,"BSTAR":0.00045635077,"MEAN_MOTION_DOT":1.85e-6,"MEAN_MOTION_DDOT":0},{"OBJECT_NAME":"ONEWEB-0249","OBJECT_ID":"2021-060A","EPOCH":"2025-10-08T01:06:28.035648","MEAN_MOTION":13.16596127,"ECCENTRICITY":0.00019654,"INCLINATION":87.8965,"RA_OF_ASC_NODE":279.0183,"ARG_OF_PERICENTER":92.0043,"MEAN_ANOMALY":268.1313,"EPHEMERIS_TYPE":0,"CLASSIFICATION_TYPE":"U","NORAD_CAT_ID":48967,"ELEMENT_SET_NO":999,"REV_AT_EPOCH":20643,"BSTAR":-7.2930673e-5,"MEAN_MOTION_DOT":-1.5e-7,"MEAN_MOTION_DDOT":0},{"OBJECT_NAME":"ONEWEB-0250","OBJECT_ID":"2021-060B","EPOCH":"2025-10-08T05:50:44.081664","MEAN_MOTION":13.2581492,"ECCENTRICITY":0.00028032,"INCLINATION":87.8962,"RA_OF_ASC_NODE":277.5595,"ARG_OF_PERICENTER":101.486,"MEAN_ANOMALY":258.6591,"EPHEMERIS_TYPE":0,"CLASSIFICATION_TYPE":"U","NORAD_CAT_ID":48968,"ELEMENT_SET_NO":999,"REV_AT_EPOCH":20683,"BSTAR":0.00016740019,"MEAN_MOTION_DOT":8.7e-7,"MEAN_MOTION_DDOT":0},{"OBJECT_NAME":"ONEWEB-0252","OBJECT_ID":"2021-060D","EPOCH":"2025-10-08T05:30:58.918176","MEAN_MOTION":13.16596594,"ECCENTRICITY":0.00015782,"INCLINATION":87.8964,"RA_OF_ASC_NODE":278.9748,"ARG_OF_PERICENTER":86.3229,"MEAN_ANOMALY":273.8082,"EPHEMERIS_TYPE":0,"CLASSIFICATION_TYPE":"U","NORAD_CAT_ID":48970,"ELEMENT_SET_NO":999,"REV_AT_EPOCH":20650,"BSTAR":0.00021510058,"MEAN_MOTION_DOT":9.5e-7,"MEAN_MOTION_DDOT":0},{"OBJECT_NAME":"ONEWEB-0253","OBJECT_ID":"2021-060E","EPOCH":"2025-10-08T01:36:08.009568","MEAN_MOTION":13.16593624,"ECCENTRICITY":0.00017473,"INCLINATION":87.8972,"RA_OF_ASC_NODE":279.011,"ARG_OF_PERICENTER":95.8712,"MEAN_ANOMALY":264.2618,"EPHEMERIS_TYPE":0,"CLASSIFICATION_TYPE":"U","NORAD_CAT_ID":48971,"ELEMENT_SET_NO":999,"REV_AT_EPOCH":20641,"BSTAR":3.8221987e-5,"MEAN_MOTION_DOT":2.7e-7,"MEAN_MOTION_DDOT":0},{"OBJECT_NAME":"ONEWEB-0254","OBJECT_ID":"2021-060F","EPOCH":"2025-10-08T05:28:42.308544","MEAN_MOTION":13.16596538,"ECCENTRICITY":0.00018914,"INCLINATION":87.8968,"RA_OF_ASC_NODE":278.9668,"ARG_OF_PERICENTER":101.3495,"MEAN_ANOMALY":258.7849,"EPHEMERIS_TYPE":0,"CLASSIFICATION_TYPE":"U","NORAD_CAT_ID":48972,"ELEMENT_SET_NO":999,"REV_AT_EPOCH":20643,"BSTAR":0.00014064477,"MEAN_MOTION_DOT":6.7e-7,"MEAN_MOTION_DDOT":0},{"OBJECT_NAME":"ONEWEB-0255","OBJECT_ID":"2021-060G","EPOCH":"2025-10-08T06:23:24.782784","MEAN_MOTION":13.16593351,"ECCENTRICITY":0.00018616,"INCLINATION":87.8958,"RA_OF_ASC_NODE":278.9826,"ARG_OF_PERICENTER":98.0707,"MEAN_ANOMALY":262.0635,"EPHEMERIS_TYPE":0,"CLASSIFICATION_TYPE":"U","NORAD_CAT_ID":48973,"ELEMENT_SET_NO":999,"REV_AT_EPOCH":20651,"BSTAR":-8.545192e-6,"MEAN_MOTION_DOT":1.0e-7,"MEAN_MOTION_DDOT":0},{"OBJECT_NAME":"ONEWEB-0256","OBJECT_ID":"2021-060H","EPOCH":"2025-10-08T07:01:01.478208","MEAN_MOTION":13.16594476,"ECCENTRICITY":0.0001822,"INCLINATION":87.8961,"RA_OF_ASC_NODE":278.988,"ARG_OF_PERICENTER":85.7688,"MEAN_ANOMALY":274.3651,"EPHEMERIS_TYPE":0,"CLASSIFICATION_TYPE":"U","NORAD_CAT_ID":48974,"ELEMENT_SET_NO":999,"REV_AT_EPOCH":20648,"BSTAR":0.0003259018,"MEAN_MOTION_DOT":1.37e-6,"MEAN_MOTION_DDOT":0},{"OBJECT_NAME":"ONEWEB-0257","OBJECT_ID":"2021-060J","EPOCH":"2025-10-08T00:30:01.216224","MEAN_MOTION":13.16592308,"ECCENTRICITY":0.00017505,"INCLINATION":87.897,"RA_OF_ASC_NODE":279.0137,"ARG_OF_PERICENTER":94.2447,"MEAN_ANOMALY":265.8884,"EPHEMERIS_TYPE":0,"CLASSIFICATION_TYPE":"U","NORAD_CAT_ID":48975,"ELEMENT_SET_NO":999,"REV_AT_EPOCH":20640,"BSTAR":-0.00033370219,"MEAN_MOTION_DOT":-1.15e-6,"MEAN_MOTION_DDOT":0},{"OBJECT_NAME":"ONEWEB-0258","OBJECT_ID":"2021-060K","EPOCH":"2025-10-08T06:00:37.122624","MEAN_MOTION":13.16593938,"ECCENTRICITY":0.00019899,"INCLINATION":87.896,"RA_OF_ASC_NODE":278.9893,"ARG_OF_PERICENTER":90.1904,"MEAN_ANOMALY":269.9455,"EPHEMERIS_TYPE":0,"CLASSIFICATION_TYPE":"U","NORAD_CAT_ID":48976,"ELEMENT_SET_NO":999,"REV_AT_EPOCH":20644,"BSTAR":-6.1301273e-5,"MEAN_MOTION_DOT":-1.1e-7,"MEAN_MOTION_DDOT":0},{"OBJECT_NAME":"ONEWEB-0259","OBJECT_ID":"2021-060L","EPOCH":"2025-10-08T05:51:29.839104","MEAN_MOTION":13.16591709,"ECCENTRICITY":0.00019516,"INCLINATION":87.8974,"RA_OF_ASC_NODE":278.9782,"ARG_OF_PERICENTER":95.0468,"MEAN_ANOMALY":265.0886,"EPHEMERIS_TYPE":0,"CLASSIFICATION_TYPE":"U","NORAD_CAT_ID":48977,"ELEMENT_SET_NO":999,"REV_AT_EPOCH":20647,"BSTAR":-0.00014310886,"MEAN_MOTION_DOT":-4.2e-7,"MEAN_MOTION_DDOT":0},{"OBJECT_NAME":"ONEWEB-0260","OBJECT_ID":"2021-060M","EPOCH":"2025-10-08T05:38:56.451840","MEAN_MOTION":13.16600693,"ECCENTRICITY":0.00016867,"INCLINATION":87.8907,"RA_OF_ASC_NODE":279.0039,"ARG_OF_PERICENTER":59.7773,"MEAN_ANOMALY":300.3525,"EPHEMERIS_TYPE":0,"CLASSIFICATION_TYPE":"U","NORAD_CAT_ID":48978,"ELEMENT_SET_NO":999,"REV_AT_EPOCH":20645,"BSTAR":-0.0059370633,"MEAN_MOTION_DOT":-2.256e-5,"MEAN_MOTION_DDOT":0},{"OBJECT_NAME":"ONEWEB-0261","OBJECT_ID":"2021-060N","EPOCH":"2025-10-08T06:45:03.844800","MEAN_MOTION":13.16596294,"ECCENTRICITY":0.00015478,"INCLINATION":87.8957,"RA_OF_ASC_NODE":278.9935,"ARG_OF_PERICENTER":101.4577,"MEAN_ANOMALY":258.6728,"EPHEMERIS_TYPE":0,"CLASSIFICATION_TYPE":"U","NORAD_CAT_ID":48979,"ELEMENT_SET_NO":999,"REV_AT_EPOCH":20651,"BSTAR":0.00010708996,"MEAN_MOTION_DOT":5.4e-7,"MEAN_MOTION_DDOT":0},{"OBJECT_NAME":"ONEWEB-0262","OBJECT_ID":"2021-060P","EPOCH":"2025-10-08T06:16:34.447584","MEAN_MOTION":13.16593843,"ECCENTRICITY":0.00020786,"INCLINATION":87.8971,"RA_OF_ASC_NODE":278.9641,"ARG_OF_PERICENTER":98.274,"MEAN_ANOMALY":261.8627,"EPHEMERIS_TYPE":0,"CLASSIFICATION_TYPE":"U","NORAD_CAT_ID":48980,"ELEMENT_SET_NO":999,"REV_AT_EPOCH":20647,"BSTAR":7.100657e-5,"MEAN_MOTION_DOT":4.0e-7,"MEAN_MOTION_DDOT":0}]
