ONEWEB-0225             
1 48799U 21045AJ  25281.30882355  .00000184  00000+0  45501-3 0  9991
2 48799  87.8990 309.4730 0001665 114.9395 245.1909 13.15547066211301
ONEWEB-0215             
1 48800U 21045AK  25281.12660995  .00000000  00000+0 -32822-4 0  9999
2 48800  87.8990 309.4632 0001839 118.0962 242.0355 13.15549068211151
ONEWEB-0216             
1 48801U 21045AL  25281.13611739  .00000045  00000+0  85710-4 0  9995
2 48801  87.8978 309.4995 0001605  94.2125 265.9189 13.15549221211168
ONEWEB-0239             
1 48802U 21045AM  25281.14086152  .00000185  00000+0  45635-3 0  9998
2 48802  87.8980 309.5132 0002110 117.7146 242.4198 13.15546507211201
ONEWEB-0249             
1 48967U 21060A   25281.04615782 -.00000015  00000+0 -72931-4 0  9997
2 48967  87.8965 279.0183 0001965  92.0043 268.1313 13.16596127206438
ONEWEB-0250             
1 48968U 21060B   25281.24356576  .00000087  00000+0  16740-3 0  9995
2 48968  87.8962 277.5595 0002803 101.4860 258.6591 13.25814920206830
ONEWEB-0252             
1 48970U 21060D   25281.22984859  .00000095  00000+0  21510-3 0  9997
2 48970  87.8964 278.9748 0001578  86.3229 273.8082 13.16596594206500
ONEWEB-0253             
1 48971U 21060E   25281.06675937  .00000027  00000+0  38222-4 0  9998
2 48971  87.8972 279.0110 0001747  95.8712 264.2618 13.16593624206415
ONEWEB-0254             
1 48972U 21060F   25281.22826746  .00000067  00000+0  14064-3 0  9994
2 48972  87.8968 278.9668 0001891 101.3495 258.7849 13.16596538206431
ONEWEB-0255             
1 48973U 21060G   25281.26625906  .00000010  00000+0 -85452-5 0  9994
2 48973  87.8958 278.9826 0001861  98.0707 262.0635 13.16593351206512
ONEWEB-0256             
1 48974U 21060H   25281.29237822  .00000137  00000+0  32590-3 0  9996
2 48974  87.8961 278.9880 0001822  85.7688 274.3651 13.16594476206484
ONEWEB-0257             
1 48975U 21060J   25281.02084741 -.00000115  00000+0 -33370-3 0  9993
2 48975  87.8970 279.0137 0001750  94.2447 265.8884 13.16592308206407
ONEWEB-0258             
1 48976U 21060K   25281.25042966 -.00000011  00000+0 -61301-4 0  9993
2 48976  87.8960 278.9893 0001989  90.1904 269.9455 13.16593938206444
ONEWEB-0259             
1 48977U 21060L   25281.24409536 -.00000042  00000+0 -14311-3 0  9995
2 48977  87.8974 278.9782 0001951  95.0468 265.0886 13.16591709206477
ONEWEB-0260             
1 48978U 21060M   25281.23537560 -.00002256  00000+0 -59371-2 0  9997
2 48978  87.8907 279.0039 0001686  59.7773 300.3525 13.16600693206456
ONEWEB-0261             
1 48979U 21060N   25281.28129450  .00000054  00000+0  10709-3 0  9993
2 48979  87.8957 278.9935 0001547 101.4577 258.6728 13.16596294206516
ONEWEB-0262             
1 48980U 21060P   25281.26150981  .00000040  00000+0  71007-4 0  9990
2 48980  87.8971 278.9641 0002078  98.2740 261.8627 13.16593843206479
